#aV2022  5 19  0  0  0.00000000     288 DD+AD WGS84 FIT  NGA
## 2210 345600.00000000   300.00000000 59718 0.0000000000000
+   32     1  2  3  4  5  6  7  8  9 10 11 12 13 14 15 16 17
+         18 19 20 21 22 23 24 25 26 27 28 29 30 31 32  0  0
+          0  0  0  0  0  0  0  0  0  0  0  0  0  0  0  0  0
+          0  0  0  0  0  0  0  0  0  0  0  0  0  0  0  0  0
+          0  0  0  0  0  0  0  0  0  0  0  0  0  0  0  0  0
++         2  2  2  2  2  2  2  2  2  2  2  2  2  2  2  2  2
++         2  2  2  2  2  2  2  2  2  2  2  2  2  2  2  0  0
++         0  0  0  0  0  0  0  0  0  0  0  0  0  0  0  0  0
++         0  0  0  0  0  0  0  0  0  0  0  0  0  0  0  0  0
++         0  0  0  0  0  0  0  0  0  0  0  0  0  0  0  0  0
%c cc cc ccc ccc cccc cccc cccc cccc ccccc ccccc ccccc ccccc
%c cc cc ccc ccc cccc cccc cccc cccc ccccc ccccc ccccc ccccc
%f  0.0000000  0.000000000  0.00000000000  0.000000000000000
%f  0.0000000  0.000000000  0.00000000000  0.000000000000000
%i    0    0    0    0      0      0      0      0         0
%i    0    0    0    0      0      0      0      0         0
/*      NGA, ST. LOUIS,MO.                                  
/*   EPHEMERIS COMPUTED FROM 2 DAYS OF DATA                 
/*   EPOCHA v7 SMOOTHER                                     
/*   G2139 IERS2010 SATIGS SATAPC                           
*  2022  5 19 15  5  0.00000000
P  1  13503.612903 -19484.598157  11305.698026    359.561817                    
V  1  -2272.626550  14867.963316  27951.887592     -0.082414                    
P  2 -14780.402219  -1424.883020 -21377.629398   -653.210736                    
V  2   5457.677838 -28168.780032  -1696.458042      0.001102                    
P  3  20503.797852 -12888.845525 -10877.494790   -249.827123                    
V  3  13774.228895  -1314.323109  27911.846479     -0.135390                    
P  4  11108.984055 -10386.770044 -21763.158223   -165.744733                    
V  4  18701.216865  20381.589188   -266.130612      0.036355                    
P  5 -25906.466798   4811.202503  -4103.867375    -82.417015                    
V  5   4016.444024  -3949.616237 -31094.667258     -0.013733                    
P  6  -7650.073476 -17461.939089 -18397.458674    309.475738                    
V  6   7547.173527 -22235.197820  17982.588284      0.147241                    
P  7   4520.338095 -25675.291968   3779.749191    322.160904                    
V  7   4548.371371  -3262.447371 -31369.903245      0.001694                    
P  8  17649.047926  -1997.127638  19816.995098    -68.651209                    
V  8  17278.977973  18281.609122 -13171.936460     -0.015701                    
P  9    759.912457 -18367.070800 -19222.880706   -335.518237                    
V  9  18324.311615  16031.757393 -14672.117448      0.029666                    
P 10   8292.825534  13115.997191  21737.530507   -420.575842                    
V 10 -26232.344216   7088.924984   5484.510519     -0.147317                    
P 11 -14956.847560  -2992.041169 -21745.299954    -23.072604                    
V 11   8682.712321 -26197.527004  -2384.927894      0.044224                    
P 12 -23599.925487   9579.685152  -7575.427947   -217.885914                    
V 12  -9569.462202   -730.528204  30057.145781     -0.058417                    
P 13 -19669.068699  -8243.624332  15788.441205    314.411185                    
V 13 -10699.935512 -17267.054432 -21964.199487      0.068208                    
P 14  -6468.800027 -14221.547734  21484.343437   -108.951342                    
V 14  26615.942580  -6102.534615   3884.750496     -0.015681                    
P 15 -17208.481143   4791.377042  19334.889904    -60.015596                    
V 15 -19098.622084 -16907.784491 -12232.759624      0.029801                    
P 16  25505.201541   1628.572816  -8323.177832   -502.204079                    
V 16  -9614.316636   3532.571471 -29305.480961     -0.032022                    
P 17 -12602.335384 -22263.079346   7464.624624    614.545543                    
V 17   7394.643626   5367.681481  30294.617982      0.046249                    
P 18  -5806.794019  25710.665101   2718.973736    165.896149                    
V 18  -3444.252403   2586.234232 -31821.212315     -0.102192                    
P 19 -17120.054697 -20437.904672  -1164.039528    159.388338                    
V 19    938.636980  -2205.688499  31935.940197      0.049745                    
P 20 -22400.122126  -1385.050872 -14017.286569    514.633860                    
V 20  15389.240001  -9618.189647 -23864.965573     -0.010690                    
P 21  15737.530481  -9827.606849  19384.790961    161.142577                    
V 21  -2970.564315  23374.504937  15428.972909      0.001502                    
P 22  18308.767998  19119.933512  -2717.929972    261.692683                    
V 22    452.019396   4742.321575  31396.076308      0.061973                    
P 23  -4188.907708  16019.592063  20735.012154    -22.884731                    
V 23 -25569.322781   6423.937866 -10223.590470     -0.024304                    
P 24 -14240.344289  16477.215076  14618.023184    238.204176                    
V 24    767.567266 -19540.874209  22729.268131     -0.070359                    
P 25 -11735.779405  16043.259527 -17770.017088    326.694947                    
V 25 -21836.650595   3914.187169  18520.588015      0.047972                    
P 26  19287.886037   7046.070248 -17096.482265    206.690252                    
V 26 -19905.949363   8336.803952 -18808.974745      0.025890                    
P 27  21480.540903  10150.383497  12058.030379    205.267521                    
V 27   9537.361499  12336.209473 -26512.507655      0.057029                    
P 28 -15088.552290 -11024.656969  19296.475568    355.109066                    
V 28  22994.305099  -4942.748071  15800.040802     -0.069942                    
P 29  -2192.453282  17803.234258 -19618.811357   -515.289991                    
V 29 -16727.652651 -18288.771959 -14829.904199     -0.039610                    
P 30  -2224.079106 -23498.633381  12009.676634   -528.475690                    
V 30   7373.625963 -13736.756778 -25941.847277     -0.014137                    
P 31   9851.194728  15037.147527 -19527.635398   -178.265931                    
V 31  -8666.255602  23164.217456  14013.390660     -0.015629                    
P 32  15687.576333  20958.833353   5189.867137   -130.735841                    
V 32  -6378.907721  -2646.268759  30654.838392     -0.087799                    
EOF
